NORAD_CAT_ID,OBJECT_NAME,OBJECT_TYPE,EPOCH,MEAN_MOTION,ECCENTRICITY,INCLINATION,RA_OF_ASC_NODE,ARG_OF_PERICENTER,MEAN_ANOMALY,BSTAR,MEAN_MOTION_DOT,MEAN_MOTION_DDOT,TLE_LINE0,TLE_LINE1,TLE_LINE2,SEMIMAJOR_AXIS,PERIOD,APOGEE,PERIGEE,DECAYED
51799.0,STARLINK-3637,PAYLOAD,2024-02-20 10:36:29,15.08824218,0.0001645,53.2176,108.1351,94.2627,265.8554,0.00025763,3.813e-05,0.0,0 STARLINK-3637,1 51799U 22017AH  24051.44200859  .00003813  00000-0  25763-3 0  9998,2 51799  53.2176 108.1351 0001645  94.2627 265.8554 15.08824218110963,6917.929,95.439,540.932,538.656,0.0
51799.0,STARLINK-3637,PAYLOAD,2024-02-20 20:08:47,15.08839556,0.0001638,53.218,106.3506,93.3557,266.7623,4.3948e-05,4.11e-06,0.0,0 STARLINK-3637,1 51799U 22017AH  24051.83944177  .00000411  00000-0  43948-4 0  9996,2 51799  53.2180 106.3506 0001638  93.3557 266.7623 15.08839556111020,6917.882,95.438,540.88,538.614,0.0
51799.0,STARLINK-3637,PAYLOAD,2024-02-21 04:05:43,15.08837507,0.0001627,53.2174,104.8647,95.536,264.5818,6.4111e-05,7.32e-06,0.0,0 STARLINK-3637,1 51799U 22017AH  24052.17064350  .00000732  00000-0  64111-4 0  9991,2 51799  53.2174 104.8647 0001627  95.5360 264.5818 15.08837507111077,6917.888,95.438,540.879,538.627,0.0
51799.0,STARLINK-3637,PAYLOAD,2024-02-21 10:27:15,15.08843138,0.0001588,53.2173,103.6781,98.3143,261.8029,0.00010776,1.428e-05,0.0,0 STARLINK-3637,1 51799U 22017AH  24052.43559924  .00001428  00000-0  10776-3 0  9996,2 51799  53.2173 103.6781 0001588  98.3143 261.8029 15.08843138111114,6917.871,95.437,540.834,538.637,0.0
51799.0,STARLINK-3637,PAYLOAD,2024-02-21 19:59:35,15.08837552,0.0001584,53.2169,101.894,97.8783,262.2389,1.883e-05,1.2e-07,0.0,0 STARLINK-3637,1 51799U 22017AH  24052.83304481  .00000012  00000-0  18830-4 0  9994,2 51799  53.2169 101.8940 0001584  97.8783 262.2389 15.08837552111179,6917.888,95.438,540.849,538.657,0.0
51799.0,STARLINK-3637,PAYLOAD,2024-02-22 10:18:03,15.08836738,0.0001649,53.2169,99.2177,103.1309,256.9867,6.6297e-05,7.67e-06,0.0,0 STARLINK-3637,1 51799U 22017AH  24053.42920607  .00000767  00000-0  66297-4 0  9991,2 51799  53.2169  99.2177 0001649 103.1309 256.9867 15.08836738111264,6917.89,95.438,540.896,538.615,0.0
51799.0,STARLINK-3637,PAYLOAD,2024-02-22 19:50:22,15.08838455,0.0001584,53.2172,97.4325,96.6716,263.4456,6.3567e-05,7.24e-06,0.0,0 STARLINK-3637,1 51799U 22017AH  24053.82664555  .00000724  00000-0  63567-4 0  9992,2 51799  53.2172  97.4325 0001584  96.6716 263.4456 15.08838455111321,6917.885,95.438,540.846,538.654,0.0
51799.0,STARLINK-3637,PAYLOAD,2024-02-23 10:08:50,15.08839233,0.0001707,53.2176,94.7565,102.7295,257.3888,4.8012e-06,-2.12e-06,0.0,0 STARLINK-3637,1 51799U 22017AH  24054.42280789 -.00000212  00000-0  48012-5 0  9994,2 51799  53.2176  94.7565 0001707 102.7295 257.3888 15.08839233111415,6917.883,95.438,540.929,538.567,0.0
51799.0,STARLINK-3637,PAYLOAD,2024-02-23 19:41:09,15.08844519,0.0001617,53.2172,92.9718,91.6826,268.4352,1.6746e-05,-2.1e-07,0.0,0 STARLINK-3637,1 51799U 22017AH  24054.82024453 -.00000021  00000-0  16746-4 0  9998,2 51799  53.2172  92.9718 0001617  91.6826 268.4352 15.08844519111475,6917.867,95.437,540.85,538.613,0.0
51799.0,STARLINK-3637,PAYLOAD,2024-02-24 09:59:37,15.08847685,0.0001569,53.2169,90.2952,88.6976,271.4195,0.00010765,1.426e-05,0.0,0 STARLINK-3637,1 51799U 22017AH  24055.41640090  .00001426  00000-0  10765-3 0  9998,2 51799  53.2169  90.2952 0001569  88.6976 271.4195 15.08847685111566,6917.857,95.437,540.807,538.636,0.0
51799.0,STARLINK-3637,PAYLOAD,2024-02-24 19:31:56,15.08842145,0.0001589,53.2173,88.5107,83.4389,276.6784,6.1907e-05,6.97e-06,0.0,0 STARLINK-3637,1 51799U 22017AH  24055.81384531  .00000697  00000-0  61907-4 0  9991,2 51799  53.2173  88.5107 0001589  83.4389 276.6784 15.08842145111620,6917.874,95.437,540.838,538.64,0.0
51799.0,STARLINK-3637,PAYLOAD,2024-02-25 01:53:28,15.08838764,0.0001611,53.2169,87.3209,84.6982,275.4194,0.00010197,1.335e-05,0.0,0 STARLINK-3637,1 51799U 22017AH  24056.07880660  .00001335  00000-0  10197-3 0  9998,2 51799  53.2169  87.3209 0001611  84.6982 275.4194 15.08838764111661,6917.884,95.438,540.864,538.635,0.0
51799.0,STARLINK-3637,PAYLOAD,2024-02-25 08:15:01,15.08842428,0.0001625,53.2163,86.1305,86.6971,273.4207,0.00011874,1.602e-05,0.0,0 STARLINK-3637,1 51799U 22017AH  24056.34376416  .00001602  00000-0  11874-3 0  9997,2 51799  53.2163  86.1305 0001625  86.6971 273.4207 15.08842428111704,6917.873,95.437,540.862,538.614,0.0
51799.0,STARLINK-3637,PAYLOAD,2024-02-25 19:22:42,15.08845464,0.0001485,53.2165,84.0482,89.6855,270.4307,8.1842e-05,1.015e-05,0.0,0 STARLINK-3637,1 51799U 22017AH  24056.80744141  .00001015  00000-0  81842-4 0  9993,2 51799  53.2165  84.0482 0001485  89.6855 270.4307 15.08845464111775,6917.864,95.437,540.756,538.701,0.0
51799.0,STARLINK-3637,PAYLOAD,2024-02-26 11:16:33,15.08853814,0.0001602,53.2166,81.0743,94.7177,265.3998,9.2755e-05,1.189e-05,0.0,0 STARLINK-3637,1 51799U 22017AH  24057.46983422  .00001189  00000-0  92755-4 0  9990,2 51799  53.2166  81.0743 0001602  94.7177 265.3998 15.08853814111876,6917.838,95.437,540.811,538.595,0.0
51799.0,STARLINK-3637,PAYLOAD,2024-02-27 01:35:02,15.08834498,0.0001762,53.2166,78.3961,108.0306,252.0879,0.00010039,1.31e-05,0.0,0 STARLINK-3637,1 51799U 22017AH  24058.06600550  .00001310  00000-0  10039-3 0  9995,2 51799  53.2166  78.3961 0001762 108.0306 252.0879 15.08834498111965,6917.897,95.438,540.981,538.543,0.0
51799.0,STARLINK-3637,PAYLOAD,2024-02-27 11:07:21,15.08838621,0.0001632,53.2166,76.614,98.6862,261.4315,2.2647e-05,7.2e-07,0.0,0 STARLINK-3637,1 51799U 22017AH  24058.46344609  .00000072  00000-0  22647-4 0  9992,2 51799  53.2166  76.6140 0001632  98.6862 261.4315 15.08838621112021,6917.885,95.438,540.879,538.621,0.0
51799.0,STARLINK-3637,PAYLOAD,2024-02-28 07:47:22,15.08835778,0.0001294,53.2166,72.7477,94.9669,265.1471,0.0001154,1.549e-05,0.0,0 STARLINK-3637,1 51799U 22017AH  24059.32456728  .00001549  00000-0  11540-3 0  9993,2 51799  53.2166  72.7477 0001294  94.9669 265.1471 15.08835778112157,6917.893,95.438,540.653,538.863,0.0
51799.0,STARLINK-3637,PAYLOAD,2024-02-28 17:19:41,15.08841492,0.0001457,53.2166,70.9632,86.9305,273.1854,7.8198e-06,-1.64e-06,0.0,0 STARLINK-3637,1 51799U 22017AH  24059.72200645 -.00000164  00000-0  78198-5 0  9999,2 51799  53.2166  70.9632 0001457  86.9305 273.1854 15.08841492112210,6917.876,95.437,540.749,538.733,0.0
51799.0,STARLINK-3637,PAYLOAD,2024-02-29 04:27:23,15.08830856,0.0001628,53.2178,68.8843,106.6702,253.4469,8.0358e-05,9.91e-06,0.0,0 STARLINK-3637,1 51799U 22017AH  24060.18569385  .00000991  00000-0  80358-4 0  9997,2 51799  53.2178  68.8843 0001628 106.6702 253.4469 15.08830856112286,6917.908,95.438,540.9,538.647,0.0
51799.0,STARLINK-3637,PAYLOAD,2024-02-29 07:38:10,15.08833764,0.0001677,53.2177,68.2899,109.5086,250.6087,0.00011311,1.512e-05,0.0,0 STARLINK-3637,1 51799U 22017AH  24060.31817202  .00001512  00000-0  11311-3 0  9998,2 51799  53.2177  68.2899 0001677 109.5086 250.6087 15.08833764112300,6917.899,95.438,540.925,538.604,0.0
51799.0,STARLINK-3637,PAYLOAD,2024-02-29 17:10:28,15.08838972,0.0001565,53.2177,66.5058,91.4817,268.6354,3.1107e-05,2.07e-06,0.0,0 STARLINK-3637,1 51799U 22017AH  24060.71561230  .00000207  00000-0  31107-4 0  9995,2 51799  53.2177  66.5058 0001565  91.4817 268.6354 15.08838972112363,6917.884,95.438,540.831,538.666,0.0
51799.0,STARLINK-3637,PAYLOAD,2024-03-01 09:04:20,15.08839186,0.0001639,53.2179,63.5323,102.0876,258.03,7.8159e-05,9.56e-06,0.0,0 STARLINK-3637,1 51799U 22017AH  24061.37801341  .00000956  00000-0  78159-4 0  9997,2 51799  53.2179  63.5323 0001639 102.0876 258.0300 15.08839186112466,6917.883,95.438,540.882,538.614,0.0
51799.0,STARLINK-3637,PAYLOAD,2024-03-02 07:19:43,15.08842035,0.0001629,53.2175,59.3691,101.5767,258.5408,0.00020965,3.05e-05,0.0,0 STARLINK-3637,1 51799U 22017AH  24062.30536919  .00003050  00000-0  20965-3 0  9996,2 51799  53.2175  59.3691 0001629 101.5767 258.5408 15.08842035112602,6917.874,95.437,540.866,538.612,0.0
51799.0,STARLINK-3637,PAYLOAD,2024-03-02 16:52:03,15.0884083,0.000155,53.2171,57.5819,81.586,278.5308,6.8644e-05,8.05e-06,0.0,0 STARLINK-3637,1 51799U 22017AH  24062.70281348  .00000805  00000-0  68644-4 0  9995,2 51799  53.2171  57.5819 0001550  81.5860 278.5308 15.08840830112662,6917.878,95.438,540.815,538.671,0.0
51799.0,STARLINK-3637,PAYLOAD,2024-03-03 03:59:45,15.08833481,0.0001699,53.218,55.4991,82.6457,277.4728,1.2205e-05,-9.4e-07,0.0,0 STARLINK-3637,1 51799U 22017AH  24063.16650092 -.00000094  00000-0  12205-4 0  9995,2 51799  53.2180  55.4991 0001699  82.6457 277.4728 15.08833481112734,6917.9,95.438,540.941,538.59,0.0
51799.0,STARLINK-3637,PAYLOAD,2024-03-03 08:45:54,15.08837264,0.0001597,53.2179,54.6042,91.24,268.8775,1.6875e-05,-1.9e-07,0.0,0 STARLINK-3637,1 51799U 22017AH  24063.36521823 -.00000019  00000-0  16875-4 0  9990,2 51799  53.2179  54.6042 0001597  91.2400 268.8775 15.08837264112763,6917.889,95.438,540.859,538.649,0.0
51799.0,STARLINK-3637,PAYLOAD,2024-03-04 03:50:31,15.08860315,0.000157,53.2193,51.036,86.0029,274.1143,3.8591e-05,3.27e-06,0.0,0 STARLINK-3637,1 51799U 22017AH  24064.16008158  .00000327  00000-0  38591-4 0  9990,2 51799  53.2193  51.0360 0001570  86.0029 274.1143 15.08860315112888,6917.818,95.436,540.769,538.597,0.0
51799.0,STARLINK-3637,PAYLOAD,2024-03-04 05:25:54,15.08857696,0.000153,53.218,50.742,88.0212,272.0956,0.00011372,1.523e-05,0.0,0 STARLINK-3637,1 51799U 22017AH  24064.22632052  .00001523  00000-0  11372-3 0  9999,2 51799  53.2180  50.7420 0001530  88.0212 272.0956 15.08857696112897,6917.826,95.436,540.75,538.633,0.0
51799.0,STARLINK-3637,PAYLOAD,2024-03-04 16:33:36,15.08845572,0.0001766,53.2201,48.659,91.3171,268.8024,9.9897e-05,1.302e-05,0.0,0 STARLINK-3637,1 51799U 22017AH  24064.69000649  .00001302  00000-0  99897-4 0  9995,2 51799  53.2201  48.6590 0001766  91.3171 268.8024 15.08845572112964,6917.863,95.437,540.95,538.507,0.0
